CAS-2T & KS-1Q          
1 41847U 16066G   21009.15273345  .00000048  00000-0  18139-4 0  9993
2 41847  98.6265  67.4299 0364951 335.9108  22.5373 14.38134429218985
NAYIF-1 (EO-88)         
1 42017U 17008BX  21008.74660178  .00001932  00000-0  74875-4 0  9990
2 42017  97.3379  79.1259 0004975 328.4823  31.6117 15.27339935216872
ZHUHAI-1 02 (CAS-4B)    
1 42759U 17034B   21009.08998860  .00000427  00000-0  39179-4 0  9998
2 42759  43.0184 337.0844 0010529 251.7003 204.4118 15.10035823197053
ZHUHAI-1 01 (CAS-4A)    
1 42761U 17034D   21009.08974836  .00000461  00000-0  41183-4 0  9994
2 42761  43.0196 336.2512 0011208 251.7576 204.9787 15.10116621197055
MAX VALIER SAT          
1 42778U 17036P   21009.14525398  .00001081  00000-0  48637-4 0  9996
2 42778  97.2789  62.8164 0012543  25.8498 334.3364 15.23124008197032
RADFXSAT (FOX-1B)       
1 43017U 17073E   21008.78036604  .00000540  00000-0  46435-4 0  9993
2 43017  97.7172 279.0249 0257358 101.0996 261.9269 14.79246708169514
FOX-1D (AO-92)          
1 43137U 18004AC  21009.14628376  .00001328  00000-0  56569-4 0  9999
2 43137  97.4257  84.7248 0010286  58.5465 301.6777 15.24699484166373
DIWATA-2B               
1 43678U 18084H   21009.21094727 -.00000263  00000-0 -20386-4 0  9999
2 43678  97.9047 133.9000 0009172 209.7229 150.3481 14.91692451119692
ES'HAIL 2               
1 43700U 18090A   21008.96577184  .00000149  00000-0  00000+0 0  9993
2 43700   0.0151  76.3185 0001599 255.6893 150.1646  1.00271826  8014
FOX-1CLIFF (AO-95)      
1 43770U 18099N   21009.17968090 -.00000053  00000-0  36645-6 0  9999
2 43770  97.6853  82.7452 0013571 226.2392 133.7706 14.95162992114654
ITASAT 1                
1 43786U 18099AE  21008.79679199  .00000351  00000-0  36839-4 0  9995
2 43786  97.6869  82.9363 0014358 220.3904 139.6252 14.95476671114629
JY1SAT (JO-97)          
1 43803U 18099AX  21008.45061491  .00000044  00000-0  91310-5 0  9993
2 43803  97.6831  82.3719 0014273 222.0480 137.9647 14.95689897114570
PSAT2 (NO-104)          
1 44354U 19036R   21008.94163414  .00009395  00000-0  12822-3 0  9996
2 44354  28.5295 106.7047 0343741 352.8332   6.7434 15.08768777 84817
BRICSAT2 (NO-103)       
1 44355U 19036S   21007.54552948  .00023395  00000-0  28986-3 0  9990
2 44355  28.5281  92.2485 0303499  16.3989 344.6184 15.19236849 84856
JAISAT-1                
1 44419U 19038F   21008.84378189  .00001175  00000-0  69435-4 0  9997
2 44419  97.5673 334.4131 0022255 139.1711 221.1192 15.13281563 83654
DUCHIFAT-3              
1 44854U 19089C   21009.03541890  .00000546  00000-0  50275-4 0  9992
2 44854  36.9674 323.2424 0008992 290.0188  69.9579 14.99287290 59165
RS-44 & BREEZE-KM R/B   
1 44909U 19096E   21008.74460321  .00000027  00000-0  56765-4 0  9991
2 44909  82.5195 218.9055 0218332 106.4689 256.0526 12.79708102 48444
ORBITAL FACTORY 2 (OF-2)
1 45113U 19071C   21008.91675089  .00002110  00000-0  73231-4 0  9992
2 45113  51.6435  90.3178 0012937  77.9127 282.3304 15.34555610 52669
HUSKYSAT-1              
1 45119U 19071J   21008.48011574  .00002385  00000-0  80992-4 0  9999
2 45119  51.6429  91.9012 0012250  73.0219 287.2105 15.34679332 52592
BY70-2                  
1 45857U 20042B   21009.08308933  .00001062  00000-0  15931-3 0  9994
2 45857  97.9987  86.4453 0010725  14.8345 345.3183 14.76609371 28023
SALSAT                  
1 46495U 20068K   21008.92151314 -.00000275  00000-0 -15653-4 0  9991
2 46495  97.6788 307.5159 0015543 251.8994 108.0540 15.03306841 15365
BY70-3                  
1 46839U 20079N   21009.19235778  .00002990  00000-0  97262-4 0  9992
2 46839  97.2585  86.1919 0008883  64.3203  20.6728 15.32616086  9807
OSCAR 7 (AO-7)          
1 07530U 74089B   21009.19612727 -.00000043  00000-0  13629-4 0  9993
2 07530 101.8327 344.0121 0012207 329.4481  42.4023 12.53646795112015
